{"fetched_at":"2026-07-23T17:55:03.132Z","source":"https://celestrak.org/NORAD/elements/gp.php?GROUP=globalstar&FORMAT=JSON","constellation":"globalstar","records":[{"OBJECT_NAME":"GLOBALSTAR M080","OBJECT_ID":"2011-080B","EPOCH":"2026-07-23T04:18:54.236160","CLASSIFICATION_TYPE":"U","MEAN_MOTION":12.62257668,"ECCENTRICITY":0.00002904,"INCLINATION":52.0053,"RA_OF_ASC_NODE":269.442,"ARG_OF_PERICENTER":63.0607,"MEAN_ANOMALY":314.935,"EPHEMERIS_TYPE":0,"NORAD_CAT_ID":38041,"ELEMENT_SET_NO":999,"REV_AT_EPOCH":67343,"BSTAR":0.000071134868,"MEAN_MOTION_DOT":-9.1e-7,"MEAN_MOTION_DDOT":0},{"OBJECT_NAME":"GLOBALSTAR M082","OBJECT_ID":"2011-080C","EPOCH":"2026-07-23T02:46:39.414144","CLASSIFICATION_TYPE":"U","MEAN_MOTION":12.62264401,"ECCENTRICITY":0.00002267,"INCLINATION":52.005,"RA_OF_ASC_NODE":225.1399,"ARG_OF_PERICENTER":45.7169,"MEAN_ANOMALY":331.1691,"EPHEMERIS_TYPE":0,"NORAD_CAT_ID":38042,"ELEMENT_SET_NO":999,"REV_AT_EPOCH":67413,"BSTAR":0.00010297921,"MEAN_MOTION_DOT":-8.5e-7,"MEAN_MOTION_DDOT":0},{"OBJECT_NAME":"GLOBALSTAR M092","OBJECT_ID":"2011-080D","EPOCH":"2026-07-23T07:56:11.799168","CLASSIFICATION_TYPE":"U","MEAN_MOTION":12.62268016,"ECCENTRICITY":0.00006955,"INCLINATION":52.0104,"RA_OF_ASC_NODE":314.8846,"ARG_OF_PERICENTER":113.628,"MEAN_ANOMALY":279.9921,"EPHEMERIS_TYPE":0,"NORAD_CAT_ID":38043,"ELEMENT_SET_NO":999,"REV_AT_EPOCH":67261,"BSTAR":0.000080039403,"MEAN_MOTION_DOT":-8.9e-7,"MEAN_MOTION_DDOT":0},{"OBJECT_NAME":"GLOBALSTAR M090","OBJECT_ID":"2011-080E","EPOCH":"2026-07-23T01:36:33.577920","CLASSIFICATION_TYPE":"U","MEAN_MOTION":12.62269661,"ECCENTRICITY":0.0000388,"INCLINATION":52.0096,"RA_OF_ASC_NODE":219.2551,"ARG_OF_PERICENTER":78.14,"MEAN_ANOMALY":316.3565,"EPHEMERIS_TYPE":0,"NORAD_CAT_ID":38044,"ELEMENT_SET_NO":999,"REV_AT_EPOCH":67424,"BSTAR":0.00010020112,"MEAN_MOTION_DOT":-8.6e-7,"MEAN_MOTION_DDOT":0},{"OBJECT_NAME":"GLOBALSTAR M086","OBJECT_ID":"2011-080F","EPOCH":"2026-07-23T02:07:00.740928","CLASSIFICATION_TYPE":"U","MEAN_MOTION":12.62287851,"ECCENTRICITY":0.00013814,"INCLINATION":51.9868,"RA_OF_ASC_NODE":219.0606,"ARG_OF_PERICENTER":122.766,"MEAN_ANOMALY":272.1379,"EPHEMERIS_TYPE":0,"NORAD_CAT_ID":38045,"ELEMENT_SET_NO":999,"REV_AT_EPOCH":67419,"BSTAR":0.000072555601,"MEAN_MOTION_DOT":-9.1e-7,"MEAN_MOTION_DDOT":0},{"OBJECT_NAME":"GLOBALSTAR M097","OBJECT_ID":"2013-005A","EPOCH":"2026-07-23T04:35:54.920832","CLASSIFICATION_TYPE":"U","MEAN_MOTION":12.6227131,"ECCENTRICITY":0.00006018,"INCLINATION":52.0037,"RA_OF_ASC_NODE":133.7342,"ARG_OF_PERICENTER":49.3326,"MEAN_ANOMALY":310.7593,"EPHEMERIS_TYPE":0,"NORAD_CAT_ID":39072,"ELEMENT_SET_NO":999,"REV_AT_EPOCH":62145,"BSTAR":-0.000019921992,"MEAN_MOTION_DOT":-0.00000107,"MEAN_MOTION_DDOT":0},{"OBJECT_NAME":"GLOBALSTAR M093","OBJECT_ID":"2013-005B","EPOCH":"2026-07-23T03:57:25.232832","CLASSIFICATION_TYPE":"U","MEAN_MOTION":12.62266458,"ECCENTRICITY":0.00008241,"INCLINATION":52.0101,"RA_OF_ASC_NODE":127.177,"ARG_OF_PERICENTER":55.3218,"MEAN_ANOMALY":304.7727,"EPHEMERIS_TYPE":0,"NORAD_CAT_ID":39073,"ELEMENT_SET_NO":999,"REV_AT_EPOCH":62140,"BSTAR":0.000026942001,"MEAN_MOTION_DOT":-9.9e-7,"MEAN_MOTION_DDOT":0},{"OBJECT_NAME":"GLOBALSTAR M094","OBJECT_ID":"2013-005C","EPOCH":"2026-07-23T00:09:10.371456","CLASSIFICATION_TYPE":"U","MEAN_MOTION":12.62264294,"ECCENTRICITY":0.00010494,"INCLINATION":51.9969,"RA_OF_ASC_NODE":41.7401,"ARG_OF_PERICENTER":76.0836,"MEAN_ANOMALY":284.0147,"EPHEMERIS_TYPE":0,"NORAD_CAT_ID":39074,"ELEMENT_SET_NO":999,"REV_AT_EPOCH":62299,"BSTAR":0.000020883015,"MEAN_MOTION_DOT":-0.000001,"MEAN_MOTION_DDOT":0},{"OBJECT_NAME":"GLOBALSTAR M096","OBJECT_ID":"2013-005D","EPOCH":"2026-07-22T22:34:37.119360","CLASSIFICATION_TYPE":"U","MEAN_MOTION":12.6226594,"ECCENTRICITY":0.00008681,"INCLINATION":52.0077,"RA_OF_ASC_NODE":90.7705,"ARG_OF_PERICENTER":55.8955,"MEAN_ANOMALY":304.1994,"EPHEMERIS_TYPE":0,"NORAD_CAT_ID":39075,"ELEMENT_SET_NO":999,"REV_AT_EPOCH":62190,"BSTAR":0.000022972058,"MEAN_MOTION_DOT":-0.000001,"MEAN_MOTION_DDOT":0},{"OBJECT_NAME":"GLOBALSTAR M078","OBJECT_ID":"2013-005E","EPOCH":"2026-07-23T05:32:03.782112","CLASSIFICATION_TYPE":"U","MEAN_MOTION":12.62260128,"ECCENTRICITY":0.00010298,"INCLINATION":51.9852,"RA_OF_ASC_NODE":173.8478,"ARG_OF_PERICENTER":0.4878,"MEAN_ANOMALY":359.5989,"EPHEMERIS_TYPE":0,"NORAD_CAT_ID":39076,"ELEMENT_SET_NO":999,"REV_AT_EPOCH":62056,"BSTAR":0.000072058208,"MEAN_MOTION_DOT":-9.1e-7,"MEAN_MOTION_DDOT":0},{"OBJECT_NAME":"GLOBALSTAR M095","OBJECT_ID":"2013-005F","EPOCH":"2026-07-23T04:16:25.857984","CLASSIFICATION_TYPE":"U","MEAN_MOTION":12.62264106,"ECCENTRICITY":0.00006382,"INCLINATION":52.006,"RA_OF_ASC_NODE":171.6621,"ARG_OF_PERICENTER":25.4631,"MEAN_ANOMALY":334.6267,"EPHEMERIS_TYPE":0,"NORAD_CAT_ID":39077,"ELEMENT_SET_NO":999,"REV_AT_EPOCH":62041,"BSTAR":0.000048282799,"MEAN_MOTION_DOT":-9.5e-7,"MEAN_MOTION_DDOT":0},{"OBJECT_NAME":"GLOBALSTAR M087","OBJECT_ID":"2022-064A","EPOCH":"2026-07-23T06:29:17.142720","CLASSIFICATION_TYPE":"U","MEAN_MOTION":12.62269513,"ECCENTRICITY":0.00008495,"INCLINATION":52.0013,"RA_OF_ASC_NODE":312.6008,"ARG_OF_PERICENTER":95.2352,"MEAN_ANOMALY":264.8612,"EPHEMERIS_TYPE":0,"NORAD_CAT_ID":52888,"ELEMENT_SET_NO":999,"REV_AT_EPOCH":19569,"BSTAR":0.000066811172,"MEAN_MOTION_DOT":-9.2e-7,"MEAN_MOTION_DDOT":0}]}
