GLOBALSTAR M080         
1 38041U 11080B   26204.17979440 -.00000091  00000+0  71135-4 0  9992
2 38041  52.0053 269.4420 0000290  63.0607 314.9350 12.62257668673436
GLOBALSTAR M082         
1 38042U 11080C   26204.11573396 -.00000085  00000+0  10298-3 0  9992
2 38042  52.0050 225.1399 0000226  45.7169 331.1691 12.62264401674137
GLOBALSTAR M092         
1 38043U 11080D   26204.33069212 -.00000089  00000+0  80039-4 0  9999
2 38043  52.0104 314.8846 0000695 113.6280 279.9921 12.62268016672612
GLOBALSTAR M090         
1 38044U 11080E   26204.06705530 -.00000086  00000+0  10020-3 0  9999
2 38044  52.0096 219.2551 0000388  78.1400 316.3565 12.62269661674240
GLOBALSTAR M086         
1 38045U 11080F   26204.08820302 -.00000091  00000+0  72556-4 0  9996
2 38045  51.9868 219.0606 0001381 122.7660 272.1379 12.62287851674190
GLOBALSTAR M097         
1 39072U 13005A   26204.19160788 -.00000107  00000+0 -19922-4 0  9990
2 39072  52.0037 133.7342 0000601  49.3326 310.7593 12.62271310621458
GLOBALSTAR M093         
1 39073U 13005B   26204.16487538 -.00000099  00000+0  26942-4 0  9992
2 39073  52.0101 127.1770 0000824  55.3218 304.7727 12.62266458621401
GLOBALSTAR M094         
1 39074U 13005C   26204.00637004 -.00000100  00000+0  20883-4 0  9992
2 39074  51.9969  41.7401 0001049  76.0836 284.0147 12.62264294622997
GLOBALSTAR M096         
1 39075U 13005D   26203.94070740 -.00000100  00000+0  22972-4 0  9994
2 39075  52.0077  90.7705 0000868  55.8955 304.1994 12.62265940621909
GLOBALSTAR M078         
1 39076U 13005E   26204.23059933 -.00000091  00000+0  72058-4 0  9998
2 39076  51.9852 173.8478 0001029   0.4878 359.5989 12.62260128620561
GLOBALSTAR M095         
1 39077U 13005F   26204.17807706 -.00000095  00000+0  48283-4 0  9998
2 39077  52.0060 171.6621 0000638  25.4631 334.6267 12.62264106620417
GLOBALSTAR M087         
1 52888U 22064A   26204.27033730 -.00000092  00000+0  66811-4 0  9991
2 52888  52.0013 312.6008 0000849  95.2352 264.8612 12.62269513195697
